MACSAT 2 (M 2)          
1 20608U 90043B   08317.11142353  .00000162  00000-0  21783-4 0  5430
2 20608  89.7391  88.9671 0093319 315.5004  43.8743 14.71926169991427
TUBSAT A                
1 21577U 91050D   08316.88689275  .00000010  00000-0  17588-4 0  3356
2 21577  98.4353 261.1411 0006075 346.9133  13.1888 14.38515939908968
S80/T                   
1 22078U 92052C   08316.42307067 -.00000037  00000-0  10000-3 0  6277
2 22078  66.0856  56.4864 0008587 336.7201  23.3431 12.86722305763722
HEALTHSAT 1             
1 22827U 93061E   08317.43663809  .00000032  00000-0  28723-4 0  1193
2 22827  98.3950 273.9459 0009300 150.9836 209.1846 14.30138561789242
TUBSAT B                
1 22970U 94003B   08317.83317941  .00000051  00000-0  10000-3 0  9261
2 22970  82.5587 302.3399 0017506  70.5930 289.7129 13.16913496711504
CERISE                  
1 23606U 95033B   08317.15937038  .00000455  00000-0  60511-4 0  6192
2 23606  98.2254  64.6709 0007653  91.7208 268.4827 14.84759844719669
UPM/LBSAT               
1 23607U 95033C   08317.43802971 -.00000104  00000-0 -77283-5 0  9608
2 23607  98.2076  34.6013 0005448 220.1943 139.8842 14.74705922717103
FAISAT 2V               
1 24954U 97052B   08316.99496593  .00000045  00000-0  28089-4 0  3487
2 24954  82.9181 118.0375 0040532  22.6400 337.6533 13.79639490560729
MUBLCOM                 
1 25736U 99026B   08317.84797339  .00000274  00000-0  90299-4 0  5901
2 25736  97.7472 261.8130 0006157  12.9856 347.1483 14.44489446499563
RUBIN-3 & SL-8 R/B      
1 27561U 02054C   08317.31958029  .00000386  00000-0  10131-3 0  5237
2 27561  97.9509 157.7682 0046700 194.0561 165.9328 14.53602209316007
APRIZESAT 2 (LATINSAT D)
1 28366U 04025A   08316.75098377  .00000043  00000-0  26936-4 0  2394
2 28366  98.0825 321.0271 0110434 101.3474 260.0145 14.35555165229032
SAUDICOMSAT 1           
1 28369U 04025D   08317.40904199  .00000101  00000-0  36561-4 0  2556
2 28369  98.0511 359.4489 0034609   2.8110 357.3302 14.50611608231528
SAUDICOMSAT 2           
1 28370U 04025E   08317.33414171  .00000076  00000-0  32753-4 0  2624
2 28370  98.0501 346.2771 0059778  30.3976 330.0702 14.45714208230735
APRIZESAT 1 (LATINSAT C)
1 28372U 04025G   08316.65577840  .00000002  00000-0  11732-4 0  2547
2 28372  98.0463 351.8393 0047902  18.3398 341.9507 14.48144323231010
NANOSAT-1               
1 28493U 04049B   08317.83984476  .00000097  00000-0  24484-4 0  2020
2 28493  98.2319 270.5824 0004203 210.3644 149.7319 14.70263877209377
SAUDICOMSAT 7           
1 31119U 07012C   08318.05898117  .00000384  00000-0  88724-4 0  4841
2 31119  98.0278  21.8157 0061598 213.8494 145.8744 14.59409194 83971
SAUDICOMSAT 6           
1 31121U 07012E   08317.71086806  .00000363  00000-0  89075-4 0  4869
2 31121  98.0242  18.6788 0078459 223.5460 135.9497 14.56286519 83756
SAUDICOMSAT 5           
1 31124U 07012H   08317.43860773  .00000398  00000-0  89121-4 0  4875
2 31124  98.0303  22.7308 0053146 211.6943 148.1051 14.60987913 83978
SAUDICOMSAT 3           
1 31125U 07012J   08317.92286981  .00000409  00000-0  88749-4 0  4949
2 31125  98.0318  24.6193 0044724 206.3342 153.5563 14.62534961 84134
SAUDICOMSAT 4           
1 31127U 07012L   08318.09475298  .00000378  00000-0  89803-4 0  4869
2 31127  98.0255  20.5369 0069723 218.1133 141.5115 14.57927777 83898
